[{"OBJECT_NAME":"TIANYAN 02","OBJECT_ID":"2019-093D","EPOCH":"2026-03-09T23:02:03.462720","MEAN_MOTION":15.03854369,"ECCENTRICITY":0.0013821,"INCLINATION":97.7892,"RA_OF_ASC_NODE":162.9238,"ARG_OF_PERICENTER":3.6432,"MEAN_ANOMALY":356.4891,"EPHEMERIS_TYPE":0,"CLASSIFICATION_TYPE":"U","NORAD_CAT_ID":44882,"ELEMENT_SET_NO":999,"REV_AT_EPOCH":33769,"BSTAR":0.0006063204,"MEAN_MOTION_DOT":8.303e-5,"MEAN_MOTION_DDOT":0},{"OBJECT_NAME":"STARLINK-3672","OBJECT_ID":"2022-025U","EPOCH":"2026-03-09T06:50:30.117984","MEAN_MOTION":15.06421762,"ECCENTRICITY":0.00016158,"INCLINATION":53.0558,"RA_OF_ASC_NODE":32.701,"ARG_OF_PERICENTER":75.7429,"MEAN_ANOMALY":284.374,"EPHEMERIS_TYPE":0,"CLASSIFICATION_TYPE":"U","NORAD_CAT_ID":51974,"ELEMENT_SET_NO":999,"REV_AT_EPOCH":22085,"BSTAR":0.00017516348,"MEAN_MOTION_DOT":2.33e-5,"MEAN_MOTION_DDOT":0}]
